ONEWEB-0520             
1 54138U 22138AB  24192.21406381  .00000108  00000+0  23631-3 0  9996
2 54138  87.9139  85.6432 0002297  67.4785 292.6590 13.19724369 84443
ONEWEB-0521             
1 54139U 22138AC  24191.79233124  .00000105  00000+0  23008-3 0  9997
2 54139  87.9137  85.7199 0001981  85.1798 274.9561 13.19725151 83465
ONEWEB-0523             
1 54141U 22138AE  24191.68932347 -.00000003  00000+0 -39070-4 0  9997
2 54141  87.9196  55.1976 0001320 110.7481 249.3794 13.20771545 85914
ONEWEB-0524             
1 54142U 22138AF  24192.13281304  .00000013  00000+0  48410-6 0  9998
2 54142  87.9195  55.1123 0000849  56.4542 303.6672 13.20770323 86842
ONEWEB-0525             
1 54143U 22138AG  24191.79075550  .00000032  00000+0  47384-4 0  9992
2 54143  87.9140  85.7315 0002179  71.5319 288.6050 13.19724999 83523
ONEWEB-0526             
1 54144U 22138AH  24191.74809451 -.00000320  00000+0 -83136-3 0  9999
2 54144  87.9139  85.7347 0001950  73.5760 286.5587 13.19725259 83493
ONEWEB-0529             
1 54145U 22138AJ  24192.20616678  .00000131  00000+0  29515-3 0  9998
2 54145  87.9145  85.6601 0002119  69.0836 291.0524 13.19726478 84447
